NORAD_CAT_ID,OBJECT_NAME,OBJECT_TYPE,EPOCH,MEAN_MOTION,ECCENTRICITY,INCLINATION,RA_OF_ASC_NODE,ARG_OF_PERICENTER,MEAN_ANOMALY,BSTAR,MEAN_MOTION_DOT,MEAN_MOTION_DDOT,TLE_LINE0,TLE_LINE1,TLE_LINE2,SEMIMAJOR_AXIS,PERIOD,APOGEE,PERIGEE,DECAYED
55307.0,STARLINK-5288,PAYLOAD,2023-01-24 16:00:00,15.94698014,0.0039256,69.9996,55.1979,163.3398,357.4101,-0.0021561,-0.00891385,0.00025117,0 STARLINK-5288,1 55307U 23010AQ  23024.66667824 -.00891385  25117-3 -21561-2 0  9994,2 55307  69.9996  55.1979 0039256 163.3398 357.4101 15.94698014  1306,6667.293000000001,90.299,315.331,262.985,0.0
55307.0,STARLINK-5288,PAYLOAD,2023-01-25 14:00:01,15.93067393,0.0030149,69.9992,52.5276,165.4338,213.498,-0.0025105,-0.00920511,0.0002621,0 STARLINK-5288,1 55307U 23010AQ  23025.58334491 -.00920511  26210-3 -25105-2 0  9994,2 55307  69.9992  52.5276 0030149 165.4338 213.4980 15.93067393  1307,6671.842,90.392,313.822,273.592,0.0
55307.0,STARLINK-5288,PAYLOAD,2023-01-25 16:00:01,15.92905997,0.0029726999999999,69.9995,52.2854,165.4718,331.2784,-0.0024645,-0.00894991,0.00024841,0 STARLINK-5288,1 55307U 23010AQ  23025.66668981 -.00894991  24841-3 -24645-2 0  9995,2 55307  69.9995  52.2854 0029727 165.4718 331.2784 15.92905997  1458,6672.292,90.401,313.992,274.323,0.0
55307.0,STARLINK-5288,PAYLOAD,2023-01-25 22:00:00,15.92453711,0.0027429,69.9998,51.5586,166.1792,323.481,-0.0025168,-0.00886786,0.00024308,0 STARLINK-5288,1 55307U 23010AQ  23025.91667824 -.00886786  24308-3 -25168-2 0  9990,2 55307  69.9998  51.5586 0027429 166.1792 323.4810 15.92453711  1301,6673.556,90.426,313.726,277.116,0.0
55307.0,STARLINK-5288,PAYLOAD,2023-01-26 00:00:00,15.92318656,0.0027007,69.9999,51.3166,166.5855,80.6387,-0.0026282,-0.00918244,0.00025893,0 STARLINK-5288,1 55307U 23010AQ  23026.00001157 -.00918244  25893-3 -26282-2 0  9995,2 55307  69.9999  51.3166 0027007 166.5855  80.6387 15.92318656  1512,6673.933000000001,90.434,313.822,277.774,0.0
55307.0,STARLINK-5288,PAYLOAD,2023-01-26 10:00:00,15.91561014,0.0023320999999999,70.0003,50.1064,168.14700000000002,306.252,-0.0026899,-0.00895573,0.00024534,0 STARLINK-5288,1 55307U 23010AQ  23026.41667824 -.00895573  24534-3 -26899-2 0  9993,2 55307  70.0003  50.1064 0023321 168.1470 306.2520 15.91561014  1570,6676.051,90.477,313.485,282.347,0.0
55307.0,STARLINK-5288,PAYLOAD,2023-01-26 14:00:01,15.91271475,0.0021436999999999,69.9995,49.622,170.47299999999998,178.4789,-0.0028131,-0.00918864,0.00025654,0 STARLINK-5288,1 55307U 23010AQ  23026.58334491 -.00918864  25654-3 -28131-2 0  9996,2 55307  69.9995  49.6220 0021437 170.4730 178.4789 15.91271475  1301,6676.861,90.494,313.039,284.413,0.0
55307.0,STARLINK-5288,PAYLOAD,2023-01-26 18:00:00,15.90972419,0.0020496,70.0,49.1387,171.4297,51.8972,-0.0028545,-0.0091646,0.00025453,0 STARLINK-5288,1 55307U 23010AQ  23026.75001157 -.00916460  25453-3 -28545-2 0  9991,2 55307  70.0000  49.1387 0020496 171.4297  51.8972 15.90972419  1632,6677.696999999999,90.511,313.249,285.876,0.0
55307.0,STARLINK-5288,PAYLOAD,2023-01-27 02:00:01,15.9038706,0.0017422999999999,70.0002,48.1727,175.5839,155.9513,-0.0030364999999999,-0.00940891,0.00026569,0 STARLINK-5288,1 55307U 23010AQ  23027.08334491 -.00940891  26569-3 -30365-2 0  9995,2 55307  70.0002  48.1727 0017423 175.5839 155.9513 15.90387060  1688,6679.335999999999,90.544,312.838,289.564,0.0
55307.0,STARLINK-5288,PAYLOAD,2023-01-27 08:00:01,15.89935862,0.0015974,69.9999,47.4484,177.6792,144.5471,-0.0031019,-0.00937337,0.00026266,0 STARLINK-5288,1 55307U 23010AQ  23027.33334491 -.00937337  26266-3 -31019-2 0  9995,2 55307  69.9999  47.4484 0015974 177.6792 144.5471 15.89935862  1721,6680.6,90.57,313.136,291.793,0.0
55307.0,STARLINK-5288,PAYLOAD,2023-01-27 14:00:01,15.89481358,0.0013842,69.9994,46.7242,183.3741,129.1409,-0.003143,-0.00925646,0.00025549,0 STARLINK-5288,1 55307U 23010AQ  23027.58334491 -.00925646  25549-3 -31430-2 0  9992,2 55307  69.9994  46.7242 0013842 183.3741 129.1409 15.89481358  1300,6681.8730000000005,90.596,312.987,294.48900000000003,0.0
55307.0,STARLINK-5288,PAYLOAD,2023-01-27 16:00:00,15.89329184,0.0013304999999999,69.9997,46.4835,184.9347,244.2529,-0.0031411,-0.00917493,0.00025096,0 STARLINK-5288,1 55307U 23010AQ  23027.66667824 -.00917493  25096-3 -31411-2 0  9997,2 55307  69.9997  46.4835 0013305 184.9347 244.2529 15.89329184  1772,6682.299,90.604,313.055,295.274,0.0
55307.0,STARLINK-5288,PAYLOAD,2023-01-27 22:00:00,15.88878882,0.0011394999999999,70.0,45.7604,191.9078,227.0288,-0.00321,-0.00914815,0.00024852,0 STARLINK-5288,1 55307U 23010AQ  23027.91667824 -.00914815  24852-3 -32100-2 0  9995,2 55307  70.0000  45.7604 0011395 191.9078 227.0288 15.88878882  1811,6683.562,90.63,313.043,297.811,0.0
55307.0,STARLINK-5288,PAYLOAD,2023-01-28 14:00:01,15.8768723,0.0008801,69.9993,43.8337,217.8923,51.7333,-0.0034462,-0.0084491,0.0,0 STARLINK-5288,1 55307U 23010AQ  23028.58334491 -.00844910  00000-0 -34462-2 0  9997,2 55307  69.9993  43.8337 0008801 217.8923  51.7333 15.87687230  1307,6686.906,90.698,314.656,302.886,0.0
55307.0,STARLINK-5288,PAYLOAD,2023-01-28 22:00:00,15.8709183,0.0008337,69.9997,42.8726,238.2654,135.6289,-0.0035756,-0.00850206,0.0,0 STARLINK-5288,1 55307U 23010AQ  23028.91667824 -.00850206  00000-0 -35756-2 0  9995,2 55307  69.9997  42.8726 0008337 238.2654 135.6289 15.87091830  1301,6688.578,90.732,316.019,304.867,0.0
55307.0,STARLINK-5288,PAYLOAD,2023-01-29 00:00:00,15.86928175,0.0008254,70.0,42.6328,241.4424,248.4116,-0.0034843,-0.00824126,0.0,0 STARLINK-5288,1 55307U 23010AQ  23029.00001157 -.00824126  00000-0 -34843-2 0  9995,2 55307  70.0000  42.6328 0008254 241.4424 248.4116 15.86928175  1980,6689.038,90.741,316.424,305.382,0.0
55307.0,STARLINK-5288,PAYLOAD,2023-01-29 22:00:01,15.85281807,0.0008226,70.0,39.9932,269.2687,53.2027,-0.0037609,-0.00821005,0.0,0 STARLINK-5288,1 55307U 23010AQ  23029.91668981 -.00821005  00000-0 -37609-2 0  9995,2 55307  70.0000  39.9932 0008226 269.2687  53.2027 15.85281807  1300,6693.668,90.836,321.04,310.027,0.0
55307.0,STARLINK-5288,PAYLOAD,2023-01-30 00:00:00,15.85151046,0.0007577,70.0002,39.7532,270.2007,167.6155,-0.0039474,-0.00852715,0.0,0 STARLINK-5288,1 55307U 23010AQ  23030.00001157 -.00852715  00000-0 -39474-2 0  9997,2 55307  70.0002  39.7532 0007577 270.2007 167.6155 15.85151046  2148,6694.036,90.843,320.974,310.829,0.0
55307.0,STARLINK-5288,PAYLOAD,2023-01-30 14:00:01,15.84107308,0.0006236,69.9996,38.0769,272.6447,251.8379,-0.0041717,-0.00855704,0.0,0 STARLINK-5288,1 55307U 23010AQ  23030.58334491 -.00855704  00000-0 -41717-2 0  9994,2 55307  69.9996  38.0769 0006236 272.6447 251.8379 15.84107308  1308,6696.977,90.903,323.018,314.665,0.0
55307.0,STARLINK-5288,PAYLOAD,2023-01-30 22:00:00,15.83502573,0.0004404,70.0,37.1204,279.8026,344.6487,-0.004222,-0.00841595,0.0,0 STARLINK-5288,1 55307U 23010AQ  23030.91667824 -.00841595  00000-0 -42220-2 0  9993,2 55307  70.0000  37.1204 0004404 279.8026 344.6487 15.83502573  1301,6698.681,90.938,323.497,317.596,0.0
55307.0,STARLINK-5288,PAYLOAD,2023-01-31 02:00:01,15.83201929,0.0003823,70.0001,36.6429,285.4049,208.7616,-0.004274,-0.00839753,0.0,0 STARLINK-5288,1 55307U 23010AQ  23031.08334491 -.00839753  00000-0 -42740-2 0  9993,2 55307  70.0001  36.6429 0003823 285.4049 208.7616 15.83201929  2314,6699.529,90.955,323.956,318.833,0.0
55307.0,STARLINK-5288,PAYLOAD,2023-01-31 14:00:01,15.82314742,0.000363,69.9993,35.2094,272.967,189.264,-0.004541,-0.00854135,0.0,0 STARLINK-5288,1 55307U 23010AQ  23031.58334491 -.00854135  00000-0 -45410-2 0  9996,2 55307  69.9993  35.2094 0003630 272.9670 189.2640 15.82314742  1306,6702.033,91.006,326.331,321.466,0.0
55307.0,STARLINK-5288,PAYLOAD,2023-01-31 22:00:00,15.81704987,0.0003477,69.9999,34.2562,272.7716,287.2798,-0.0045713,-0.00837199,0.0,0 STARLINK-5288,1 55307U 23010AQ  23031.91667824 -.00837199  00000-0 -45713-2 0  9999,2 55307  69.9999  34.2562 0003477 272.7716 287.2798 15.81704987  2452,6703.756,91.041,327.952,323.29,0.0
55307.0,STARLINK-5288,PAYLOAD,2023-02-01 14:00:01,15.80514345,0.0003608,69.9994,32.3501,268.2945,125.2344,-0.0048693,-0.00843331,0.0,0 STARLINK-5288,1 55307U 23010AQ  23032.58334491 -.00843331  00000-0 -48693-2 0  9999,2 55307  69.9994  32.3501 0003608 268.2945 125.2344 15.80514345  1306,6707.122,91.11,331.407,326.567,0.0
55307.0,STARLINK-5288,PAYLOAD,2023-02-01 22:00:00,15.79911067,0.00035,70.0002,31.3989,273.7467,215.4492,-0.004967,-0.00837263,0.0,0 STARLINK-5288,1 55307U 23010AQ  23032.91667824 -.00837263  00000-0 -49670-2 0  9998,2 55307  70.0002  31.3989 0003500 273.7467 215.4492 15.79911067  2609,6708.829,91.144,333.042,328.346,0.0
55307.0,STARLINK-5288,PAYLOAD,2023-02-02 14:00:01,15.78715659,0.0003595,69.9993,29.4974,267.5528,50.8204,-0.0052406,-0.00836665,0.0,0 STARLINK-5288,1 55307U 23010AQ  23033.58334491 -.00836665  00000-0 -52406-2 0  9999,2 55307  69.9993  29.4974 0003595 267.5528  50.8204 15.78715659  1306,6712.216,91.213,336.494,331.668,0.0
55307.0,STARLINK-5288,PAYLOAD,2023-02-03 02:00:01,15.77831828,0.0003656,69.9997,28.0739,259.9704,18.397,-0.005578,-0.00854019,0.0,0 STARLINK-5288,1 55307U 23010AQ  23034.08334491 -.00854019  00000-0 -55780-2 0  9996,2 55307  69.9997  28.0739 0003656 259.9704  18.3970 15.77831828  2792,6714.722,91.264,339.042,334.132,0.0
55307.0,STARLINK-5288,PAYLOAD,2023-02-03 14:00:01,15.76935311,0.0003562,69.999,26.6523,264.4653,332.2897,-0.0058176,-0.00855505,0.0,0 STARLINK-5288,1 55307U 23010AQ  23034.58334491 -.00855505  00000-0 -58176-2 0  9994,2 55307  69.9990  26.6523 0003562 264.4653 332.2897 15.76935311  1303,6717.267,91.316,341.524,336.739,0.0
55307.0,STARLINK-5288,PAYLOAD,2023-02-03 22:00:00,15.76320914,0.0003575,70.0001,25.7072,266.6389,61.4849,-0.0058002,-0.00832284,0.0,0 STARLINK-5288,1 55307U 23010AQ  23034.91667824 -.00832284  00000-0 -58002-2 0  9997,2 55307  70.0001  25.7072 0003575 266.6389  61.4849 15.76320914  1307,6719.012,91.352,343.279,338.475,0.0
